STARLINK-2475           
1 48133C 21027AT  22024.49791966 -.00016323  00000-0 -10940-2 0   244
2 48133  53.0550  88.6983 0001435  70.8609 240.3228 15.06401347    17
STARLINK-2476           
1 48134C 21027AU  22024.48281131 -.00017761  00000-0 -11901-2 0   247
2 48134  53.0544  88.7629 0001307  81.3861 227.8279 15.06414823    13
STARLINK-2478           
1 48135C 21027AV  22024.49216714  .00000112  00000-0  74792-5 0   244
2 48135  53.0548  93.7183 0001278  76.9063   0.7013 15.06392279    14
STARLINK-2479           
1 48136C 21027AW  22024.46580881 -.00015542  00000-0 -10415-2 0   245
2 48136  53.0546  88.8274 0001411  73.6359   3.2699 15.06409167    13
STARLINK-2480           
1 48137C 21027AX  22024.49479237  .00004040  00000-0  27072-3 0   248
2 48137  53.0546  68.6938 0001489  70.9558  18.3805 15.06387571    13
STARLINK-2481           
1 48138C 21027AY  22024.49426745  .00009167  00000-0  61447-3 0   244
2 48138  53.0529  88.7177 0001194  80.4731 230.9219 15.06372854    14
STARLINK-2482           
1 48139C 21027AZ  22024.49239956 -.00016412  00000-0 -10995-2 0   245
2 48139  53.0542  68.7062 0001394  78.5308 272.6063 15.06417754    10
STARLINK-2483           
1 48140C 21027BA  22024.47602682  .00000542  00000-0  36305-4 0   245
2 48140  53.0549  88.7851 0001463  76.7251   0.7244 15.06401224    17
STARLINK-2484           
1 48141C 21027BB  22024.49946898  .00002476  00000-0  16588-3 0   246
2 48141  53.0534  88.6911 0001452  82.1068 357.4678 15.06394427    12
STARLINK-2485           
1 48142C 21027BC  22024.43852508 -.00014354  00000-0 -96194-3 0   246
2 48142  53.0538  68.9605 0001360  76.4373   2.4432 15.06405956    16
STARLINK-2486           
1 48143C 21027BD  22024.42706674 -.00009661  00000-0 -64750-3 0   246
2 48143  53.0569  24.0008 0001427  65.0647  44.2894 15.06397779    12
STARLINK-2487           
1 48144C 21027BE  22024.49583613 -.00015354  00000-0 -10287-2 0   241
2 48144  53.0533  68.7008 0001330  75.6272 274.1597 15.06414953    11
STARLINK-2488           
1 48145C 21027BF  22024.49931615 -.00014958  00000-0 -10025-2 0   240
2 48145  53.0541  68.6759 0001313  70.1957 278.5455 15.06403271    16
STARLINK-2489           
1 48146C 21027BG  22024.49045691  .00007161  00000-0  48003-3 0   245
2 48146  53.0543  88.7224 0001266  77.0123 233.7163 15.06373878    15
STARLINK-2490           
1 48147C 21027BH  22024.49147491  .00008094  00000-0  54251-3 0   245
2 48147  53.0586  93.7038 0001454  74.1520 254.5751 15.06375399    14
STARLINK-2491           
1 48148C 21027BJ  22024.48071146 -.00016366  00000-0 -10970-2 0   240
2 48148  53.0543  88.7769 0001407  70.1433   7.6745 15.06401370    19
STARLINK-2492           
1 48149C 21027BK  22024.49582706  .00010225  00000-0  68532-3 0   245
2 48149  53.0541  68.6893 0001337  75.7108  14.1308 15.06374541    12
STARLINK-2493           
1 48150C 21027BL  22024.47552815  .00009303  00000-0  62344-3 0   243
2 48150  53.0542  68.7965 0001406  97.0785 222.5944 15.06382831    13
STARLINK-2503           
1 48151C 21027BM  22024.43575955  .00008151  00000-0  54621-3 0   249
2 48151  53.0551  68.9720 0001325  73.3608  10.5087 15.06384269    16
STARLINK-2567           
1 48276C 21036A   22024.46702522 -.00000924  00000-0 -61917-4 0   241
2 48276  53.0561 323.8211 0001734  67.4790 323.5595 15.06389132    18
STARLINK-2569           
1 48277C 21036B   22024.48680350 -.00018544  00000-0 -12418-2 0   245
2 48277  53.0541 288.7187 0002529  59.2642  71.4551 15.06433922    14
STARLINK-2543           
1 48278C 21036C   22024.48124432  .00001606  00000-0  10996-3 0   249
2 48278  53.0547 303.8426 0002159  59.3252 219.2178 15.05582953    18
STARLINK-2580           
1 48279C 21036D   22024.47745686  .00006828  00000-0  45760-3 0   247
2 48279  53.0555 303.7786 0001891  55.7966 221.8459 15.06383433    14
STARLINK-2565           
1 48280C 21036E   22024.45919494 -.00010913  00000-0 -73142-3 0   244
2 48280  53.0548  13.8504 0001653  67.6791 145.8727 15.06398775    17
STARLINK-2520           
1 48281C 21036F   22024.48909944 -.00013091  00000-0 -87742-3 0   248
2 48281  53.0555 353.7258 0001698  63.2710 242.5396 15.06399095    13
STARLINK-2558           
1 48282C 21036G   22024.42934756  .00012996  00000-0  87071-3 0   248
2 48282  53.0545 359.0046 0001878  63.2372 150.8318 15.06386246    10
STARLINK-2516           
1 48283C 21036H   22024.49582626 -.00009967  00000-0 -66797-3 0   249
2 48283  53.0547 358.7055 0001788  56.3041 178.5055 15.06397492    15
STARLINK-2564           
1 48284C 21036J   22024.49183793  .00005069  00000-0  33973-3 0   249
2 48284  53.0545 358.7051 0001623  61.1796 172.0125 15.06382378    13
STARLINK-2548           
1 48285C 21036K   22024.49167266 -.00014536  00000-0 -97395-3 0   246
2 48285  53.0553 358.7109 0001571  67.4901 184.7396 15.06413315    12
STARLINK-2547           
1 48286C 21036L   22024.49775590  .00009926  00000-0  66557-3 0   243
2 48286  53.0560 358.6937 0001898  59.2016 246.0802 15.06360238    16
STARLINK-2566           
1 48287C 21036M   22024.49395250 -.00013972  00000-0 -93647-3 0   243
2 48287  53.0549 358.6976 0001690  60.9051 243.7247 15.06398447    15
STARLINK-2562           
1 48288C 21036N   22024.49028262 -.00014081  00000-0 -94378-3 0   244
2 48288  53.0560 358.7265 0001582  59.2387 245.4887 15.06400715    15
STARLINK-2545           
1 48289C 21036P   22024.48646226 -.00012899  00000-0 -86437-3 0   242
2 48289  53.0547 358.7300 0001803  65.0358 238.9705 15.06405523    18
STARLINK-2540           
1 48290C 21036Q   22024.48282979  .00004977  00000-0  33361-3 0   249
2 48290  53.0553 358.7690 0001662  52.6029 251.7184 15.06379808    19
STARLINK-2555           
1 48291C 21036R   22024.47918334  .00000219  00000-0  14690-4 0   240
2 48291  53.0556 358.7778 0001626  55.6051 248.9336 15.06382934    19
STARLINK-2542           
1 48292C 21036S   22024.47485115 -.00009036  00000-0 -60557-3 0   247
2 48292  53.0559 358.7939 0001684  58.7753 247.3682 15.06400001    12
STARLINK-2550           
1 48293C 21036T   22024.45676512 -.00009967  00000-0 -66786-3 0   242
2 48293  53.0559 358.8720 0001669  61.2830 161.5848 15.06404758    14
STARLINK-2533           
1 48294C 21036U   22024.45279120  .00010566  00000-0  70788-3 0   249
2 48294  53.0544 358.9040 0001872  54.4272 166.8882 15.06390374    19
STARLINK-2535           
1 48295C 21036V   22024.44860272 -.00011272  00000-0 -75531-3 0   241
2 48295  53.0539 358.9068 0001748  64.8810 153.6982 15.06404292    19
STARLINK-2546           
1 48296C 21036W   22024.44497767 -.00012623  00000-0 -84599-3 0   242
2 48296  53.0550 358.9299 0001758  63.8888 155.0177 15.06401483    15
STARLINK-2544           
1 48297C 21036X   22024.44082923 -.00008082  00000-0 -54149-3 0   249
2 48297  53.0545 358.9473 0001758  54.8860 161.5179 15.06407961    15
STARLINK-2559           
1 48298C 21036Y   22024.43681308  .00003126  00000-0  20946-3 0   241
2 48298  53.0548 358.9667 0001622  63.5695 151.0554 15.06394760    10
STARLINK-2557           
1 48299C 21036Z   22024.43316824 -.00007749  00000-0 -51935-3 0   249
2 48299  53.0556 358.9909 0001844  60.3686 154.4803 15.06393468    18
STARLINK-2538           
1 48300C 21036AA  22024.49324858  .00010375  00000-0  69500-3 0   248
2 48300  53.0550   8.7220 0001591  63.0652 162.7124 15.06395641    16
STARLINK-2537           
1 48301C 21036AB  22024.48957435 -.00008164  00000-0 -54716-3 0   249
2 48301  53.0566   8.7198 0001563  67.9470 157.9440 15.06395143    12
STARLINK-2556           
1 48302C 21036AC  22024.48558811  .00011031  00000-0  73935-3 0   244
2 48302  53.0569   8.7481 0001451  56.7931 167.5012 15.06373404    13
STARLINK-2530           
1 48303C 21036AD  22024.48141630  .00005275  00000-0  35354-3 0   248
2 48303  53.0570   8.7551 0001775  60.7785 160.8536 15.06381269    10
STARLINK-2524           
1 48304C 21036AE  22024.47742901 -.00007637  00000-0 -51170-3 0   246
2 48304  53.0562   8.7822 0001647  65.5277 154.4304 15.06405644    16
STARLINK-2519           
1 48305C 21036AF  22024.47346117  .00001268  00000-0  84978-4 0   241
2 48305  53.0558   8.7911 0001743  54.3121 164.1539 15.06386888    18
STARLINK-2523           
1 48306C 21036AG  22024.46943274 -.00011106  00000-0 -74430-3 0   243
2 48306  53.0545   8.8251 0001596  59.7590 156.8489 15.06401812    15
STARLINK-2528           
1 48307C 21036AH  22024.46546423 -.00000380  00000-0 -25473-4 0   245
2 48307  53.0558   8.8302 0001643  52.8295 162.2269 15.06398178    13
STARLINK-2532           
1 48308C 21036AJ  22024.46180719 -.00007878  00000-0 -52802-3 0   242
2 48308  53.0562   8.8576 0001697  62.4438 152.8136 15.06391727    18
STARLINK-2517           
1 48309C 21036AK  22024.45798154  .00006076  00000-0  40707-3 0   248
2 48309  53.0547   8.8757 0001619  70.0180 144.4056 15.06395050    17
STARLINK-2536           
1 48310C 21036AL  22024.45436115 -.00012260  00000-0 -82166-3 0   245
2 48310  53.0551   8.8756 0001600  65.8481 148.9672 15.06401895    17
STARLINK-2534           
1 48311C 21036AM  22024.45051242  .00013509  00000-0  90537-3 0   246
2 48311  53.0556   8.9125 0001473  68.7080 145.2342 15.06375200    13
STARLINK-2061           
1 48312C 21036AN  22024.44686707  .00013257  00000-0  88820-3 0   248
2 48312  53.0543   8.9222 0001533  54.4319 159.6750 15.06386051    10
STARLINK-2541           
1 48313C 21036AP  22024.44305727  .00012728  00000-0  85297-3 0   246
2 48313  53.0531   8.9357 0001532  58.5451 154.9603 15.06377636    12
STARLINK-2549           
1 48314C 21036AQ  22024.43942244  .00012522  00000-0  83938-3 0   249
2 48314  53.0542   8.9603 0001441  63.9918 149.8164 15.06370355    12
STARLINK-2506           
1 48315C 21036AR  22024.43418970 -.00008337  00000-0 -55878-3 0   247
2 48315  53.0534   8.9866 0001539  71.1635 134.2240 15.06393661    18
STARLINK-2507           
